STARLINK-36075          
1 66905U 25283AD  26068.26290423  .00009507  00000+0  33325-3 0  9995
2 66905  53.1623  26.5141 0001156 128.6218 231.4886 15.30145175 15772
KUIPER-00266            
1 67789U 26030AB  26067.91293632  .00029701  00000+0  98220-3 0  9996
2 67789  51.8807 223.5904 0022313  72.5291 287.8129 15.30874235  4964
